              TDR Cartesian                         TDR Cartesian  
    -----------------------------------       --------------------------------
     X    =      -18242054.80                 X    =        -5560178.30
     Y    =        7864603.22  feet           Y    =         2397131.06  meter
     Z    =        9996369.55                 Z    =         3046893.44
     XDOT =     -13839.010640                 XDOT =       -4218.130443
     YDOT =     -11497.362621  feet/sec       YDOT =       -3504.396127  meter/sec
     ZDOT =     -16167.329394                 ZDOT =       -4927.801999
  
  
    The mean element set is posted at the UTC for which position is
    just north of the next ascending node relative to the above
    vector time
 
 
    TWO LINE MEAN ELEMENT SET
  
    ISS
    1 25544U 98067A   17337.59745725  .00016717  00000-0  10270-3 0  9125
    2 25544  51.6409 273.7893 0003174 194.9195 165.1864 15.54080922  8093
  
  
    Satellite: ISS
    Catalog Number: 25544
    Epoch time:      17337.59745725   =   yrday.fracday
    Element set:     912
    Inclination:       51.6409  deg
    RA of node:       273.7893  deg
    Eccentricity:     .0003174     
    Arg of perigee:   194.9195  deg
    Mean anomaly:     165.1864  deg
    Mean motion:   15.54080922  rev/day
    Decay rate:    1.67170E-04  rev/day^2
    Epoch rev:             809
    Checksum:              342
 
 
    Coasting Arc #14 (Orbit 823)
    ---------------------------------------
 
    Vector Time (GMT): 2017/338/13:10:00.000
    Vector Time (MET): N/A
    Weight (LBS)     : 919252.8
 
              M50 Cartesian                         M50 Keplerian  
    -----------------------------------       --------------------------------
     X    =       -4156363.73                 A    =         6778260.89  meter
     Y    =       -1636721.09  meter          E    =           .0013520
     Z    =       -5110084.26                 I    =           51.24739
     XDOT =       1010.475535                 Wp   =          115.28162
     YDOT =      -7430.254967  meter/sec      RA   =          268.15971  deg
     ZDOT =       1555.537044                 TA   =          169.82918
                                              MA   =          169.80180
                                              Ha   =            220.999  n.mi
                                              Hp   =            214.887
 
              M50 Cartesian                         J2K Cartesian  
    -----------------------------------       --------------------------------
     X    =      -13636363.94                 X    =        -4112929.93
     Y    =       -5369819.84  feet           Y    =        -1682956.92  meter
     Z    =      -16765368.31                 Z    =        -5130169.58
     XDOT =       3315.208449                 XDOT =        1085.931394
     YDOT =     -24377.476926  feet/sec       YDOT =       -7418.533425  meter/sec
     ZDOT =       5103.467991                 ZDOT =        1560.628081
 
              TDR Cartesian                         TDR Cartesian  
    -----------------------------------       --------------------------------
     X    =        5330762.57                 X    =         1624816.43
     Y    =      -13541861.37  feet           Y    =        -4127559.34  meter
     Z    =      -16854195.99                 Z    =        -5137158.94
     XDOT =      23399.260703                 XDOT =        7132.094662
     YDOT =       2819.889586  feet/sec       YDOT =         859.502346  meter/sec
     ZDOT =       5127.245436                 ZDOT =        1562.784409
  
  
    The mean element set is posted at the UTC for which position is
    just north of the next ascending node relative to the above
    vector time
 
 
    TWO LINE MEAN ELEMENT SET
  
    ISS
    1 25544U 98067A   17338.56201078  .00016717  00000-0  10270-3 0  9132
    2 25544  51.6413 268.9813 0003172 200.1021 160.0007 15.54096346  8249
  
  
    Satellite: ISS
    Catalog Number: 25544
    Epoch time:      17338.56201078   =   yrday.fracday
    Element set:     913
    Inclination:       51.6413  deg
    RA of node:       268.9813  deg
    Eccentricity:     .0003172     
    Arg of perigee:   200.1021  deg
    Mean anomaly:     160.0007  deg
    Mean motion:   15.54096346  rev/day
    Decay rate:    1.67170E-04  rev/day^2
    Epoch rev:             824
    Checksum:              275
 
 
    Coasting Arc #15 (Orbit 828)
    ---------------------------------------
 
    Vector Time (GMT): 2017/338/19:53:38.000
    Vector Time (MET): N/A
    Weight (LBS)     : 919252.8
 
              M50 Cartesian                         M50 Keplerian  
    -----------------------------------       --------------------------------
     X    =        3217457.48                 A    =         6781478.41  meter
     Y    =       -4145281.48  meter          E    =           .0010159
     Z    =        4292661.23                 I    =           51.25492
     XDOT =       3143.262408                 Wp   =          128.09750
     YDOT =       6063.609663  meter/sec      RA   =          266.78868  deg
     ZDOT =       3487.660064                 TA   =          286.17766
                                              MA   =          286.28944
                                              Ha   =            220.928  n.mi
                                              Hp   =            215.062
 
              M50 Cartesian                         J2K Cartesian  
    -----------------------------------       --------------------------------
     X    =       10555962.88                 X    =         3242720.11
     Y    =      -13600004.85  feet           Y    =        -4109160.94  meter
     Z    =       14083534.22                 Z    =         4308351.70
     XDOT =      10312.540709                 XDOT =        3058.282335
     YDOT =      19893.732490  feet/sec       YDOT =        6098.284197  meter/sec
     ZDOT =      11442.454279                 ZDOT =        3502.723576
 
              TDR Cartesian                         TDR Cartesian  
    -----------------------------------       --------------------------------
     X    =        7580618.57                 X    =         2310572.54
     Y    =      -15392811.35  feet           Y    =        -4691728.90  meter
     Z    =       14153798.13                 Z    =         4314077.67
     XDOT =      12831.595048                 XDOT =        3911.070171
     YDOT =      16936.700765  feet/sec       YDOT =        5162.306393  meter/sec
     ZDOT =      11508.299430                 ZDOT =        3507.729666
  
  
    The mean element set is posted at the UTC for which position is
    just north of the next ascending node relative to the above
    vector time
 
 
    TWO LINE MEAN ELEMENT SET
  
    ISS
    1 25544U 98067A   17338.88352558  .00016717  00000-0  10270-3 0  9148
    2 25544  51.6376 267.3749 0003535 201.5803 158.5201 15.54113792  8292
  
  
    Satellite: ISS
    Catalog Number: 25544
    Epoch time:      17338.88352558   =   yrday.fracday
    Element set:     914
    Inclination:       51.6376  deg
    RA of node:       267.3749  deg
    Eccentricity:     .0003535     
    Arg of perigee:   201.5803  deg
    Mean anomaly:     158.5201  deg
    Mean motion:   15.54113792  rev/day
    Decay rate:    1.67170E-04  rev/day^2
    Epoch rev:             829
    Checksum:              324
 
 
    Coasting Arc #16 (Orbit 843)
    ---------------------------------------
 
    Vector Time (GMT): 2017/339/19:53:38.000
    Vector Time (MET): N/A
    Weight (LBS)     : 919252.8
 
              M50 Cartesian                         M50 Keplerian  
    -----------------------------------       --------------------------------
     X    =       -3734399.16                 A    =         6778407.37  meter
     Y    =        2550067.76  meter          E    =           .0011731
     Z    =       -5059729.08                 I    =           51.24878
     XDOT =      -2440.992333                 Wp   =           90.84427
     YDOT =      -7045.681120  meter/sec      RA   =          261.76818  deg
     ZDOT =      -1753.073375                 TA   =          162.11086
                                              MA   =          162.06953
                                              Ha   =            220.950  n.mi
                                              Hp   =            214.888
 
              M50 Cartesian                         J2K Cartesian  
    -----------------------------------       --------------------------------
     X    =      -12251965.74                 X    =        -3738059.32
     Y    =        8366364.03  feet           Y    =         2508287.29  meter
     Z    =      -16600161.01                 Z    =        -5077878.33
     XDOT =      -8008.505030                 XDOT =       -2353.508597
     YDOT =     -23115.751707  feet/sec       YDOT =       -7072.488606  meter/sec
     ZDOT =      -5751.553069                 ZDOT =       -1764.719377
 
              TDR Cartesian                         TDR Cartesian  
    -----------------------------------       --------------------------------
     X    =      -10074011.90                 X    =        -3070558.83
     Y    =       10766984.83  feet           Y    =         3281776.98  meter
     Z    =      -16681078.48                 Z    =        -5084392.72
     XDOT =     -11942.073013                 XDOT =       -3639.943854
     YDOT =     -20143.804818  feet/sec       YDOT =       -6139.831709  meter/sec
     ZDOT =      -5802.100743                 ZDOT =       -1768.480307
  
  
    The mean element set is posted at the UTC for which position is
    just north of the next ascending node relative to the above
    vector time
 
 
    TWO LINE MEAN ELEMENT SET
  
    ISS
    1 25544U 98067A   17339.84807112  .00016717  00000-0  10270-3 0  9157
    2 25544  51.6388 262.5672 0003409 200.1173 159.9846 15.54121992  8440
  
